[{"OBJECT_NAME":"QIANFAN-43","OBJECT_ID":"2024-232H","EPOCH":"2026-03-09T22:20:45.605760","MEAN_MOTION":13.51005498,"ECCENTRICITY":0.00140223,"INCLINATION":89.0069,"RA_OF_ASC_NODE":32.4652,"ARG_OF_PERICENTER":310.8989,"MEAN_ANOMALY":49.0947,"EPHEMERIS_TYPE":0,"CLASSIFICATION_TYPE":"U","NORAD_CAT_ID":62244,"ELEMENT_SET_NO":999,"REV_AT_EPOCH":7963,"BSTAR":0.00014836339,"MEAN_MOTION_DOT":1.08e-6,"MEAN_MOTION_DDOT":0},{"OBJECT_NAME":"SCOUT G-1 R\/B","OBJECT_ID":"1987-080C","EPOCH":"2026-03-09T22:24:44.751456","MEAN_MOTION":13.44160423,"ECCENTRICITY":0.01046762,"INCLINATION":90.3653,"RA_OF_ASC_NODE":82.6776,"ARG_OF_PERICENTER":16.041,"MEAN_ANOMALY":47.451,"EPHEMERIS_TYPE":0,"CLASSIFICATION_TYPE":"U","NORAD_CAT_ID":18363,"ELEMENT_SET_NO":999,"REV_AT_EPOCH":88651,"BSTAR":0.0001321269,"MEAN_MOTION_DOT":8.7e-7,"MEAN_MOTION_DDOT":0}]
